GOES 18
1 51850U 22021A   26187.76150079  .00000112  00000+0  00000+0 0  9997
2 51850   0.0184 202.6762 0000524 322.8576 256.3374  1.00271149  6789
